[{"OBJECT_NAME":"STARLINK-30252","OBJECT_ID":"2023-119F","EPOCH":"2026-03-09T00:58:01.593408","MEAN_MOTION":15.26747761,"ECCENTRICITY":0.00012173,"INCLINATION":42.9989,"RA_OF_ASC_NODE":70.2401,"ARG_OF_PERICENTER":279.343,"MEAN_ANOMALY":80.7284,"EPHEMERIS_TYPE":0,"CLASSIFICATION_TYPE":"U","NORAD_CAT_ID":57607,"ELEMENT_SET_NO":999,"REV_AT_EPOCH":14316,"BSTAR":1.8088466e-5,"MEAN_MOTION_DOT":2.26e-6,"MEAN_MOTION_DDOT":0},{"OBJECT_NAME":"HAWK-11B","OBJECT_ID":"2024-247C","EPOCH":"2026-03-09T10:44:06.809856","MEAN_MOTION":15.2884707,"ECCENTRICITY":0.00046902,"INCLINATION":45.0161,"RA_OF_ASC_NODE":115.761,"ARG_OF_PERICENTER":333.0326,"MEAN_ANOMALY":27.0314,"EPHEMERIS_TYPE":0,"CLASSIFICATION_TYPE":"U","NORAD_CAT_ID":62379,"ELEMENT_SET_NO":999,"REV_AT_EPOCH":6773,"BSTAR":0.00032841927,"MEAN_MOTION_DOT":9.093e-5,"MEAN_MOTION_DDOT":0}]
